GSAT0101 (PRN E11)      
1 37846U 11060A   20286.26904993 -.00000058  00000-0  00000-0 0  9990
2 37846  56.7017  38.0786 0000660 354.9597   5.0420  1.70475236 55761
GSAT0102 (PRN E12)      
1 37847U 11060B   20286.19223397 -.00000057  00000-0  00000-0 0  9994
2 37847  56.7024  38.0801 0002358 294.8305  64.1553  1.70475378 55763
GSAT0103 (PRN E19)      
1 38857U 12055A   20283.96477318  .00000032  00000-0  00000-0 0  9999
2 38857  54.9934 158.6303 0001708 267.0893  92.9840  1.70473835 49760
GSAT0104 (PRN E20)      
1 38858U 12055B   20285.07232875  .00000034  00000-0  00000+0 0  9992
2 38858  54.9944 158.5992 0000608 301.1480  58.9397  1.70473786 49736
GSAT0201 (PRN E18)      
1 40128U 14050A   20284.20861126 -.00000080  00000-0  00000-0 0  9996
2 40128  50.5498 356.7980 1658383 103.1428 275.8273  1.85519149 39806
GSAT0202 (PRN E14)      
1 40129U 14050B   20283.93291885 -.00000080  00000-0  00000+0 0  9994
2 40129  50.5851 355.8494 1656065 103.9482 274.9654  1.85519828 41937
GSAT0203 (PRN E26)      
1 40544U 15017A   20284.87700519 -.00000055  00000-0  00000-0 0  9995
2 40544  56.4943  38.2345 0003947 225.2592 134.7140  1.70475034 33822
GSAT0204 (PRN E22)      
1 40545U 15017B   20285.83118441 -.00000057  00000-0  00000+0 0  9991
2 40545  56.5018  38.2246 0003490 186.4427 173.5562  1.70475173 34504
GSAT0205 (PRN E24)      
1 40889U 15045A   20284.90016442  .00000030  00000-0  00000+0 0  9998
2 40889  56.0658 278.9208 0003833 335.7109  24.2834  1.70474914 31635
GSAT0206 (PRN E30)      
1 40890U 15045B   20285.11971493  .00000030  00000-0  00000+0 0  9990
2 40890  56.0648 278.9111 0003090 308.7638  51.2210  1.70474862 31664
GSAT0209 (PRN E09)      
1 41174U 15079A   20282.94695668  .00000032  00000-0  00000+0 0  9990
2 41174  55.0081 158.3571 0003592 332.7588  27.3168  1.70472956 29945
GSAT0208 (PRN E08)      
1 41175U 15079B   20285.51303887  .00000035  00000-0  00000-0 0  9990
2 41175  55.0070 158.2858 0002830 341.2882  18.7964  1.70472939 29991
GSAT0211 (PRN E02)      
1 41549U 16030A   20285.04762788  .00000030  00000-0  00000+0 0  9994
2 41549  56.2077 278.7815 0004876 294.4078  65.5535  1.70474669 27270
GSAT0210 (PRN E01)      
1 41550U 16030B   20285.34050953  .00000030  00000-0  00000+0 0  9993
2 41550  56.2067 278.7751 0004920 272.7099  87.2459  1.70474665 27274
GSAT0207 (PRN E07)      
1 41859U 16069A   20283.82635732  .00000032  00000-0  00000-0 0  9995
2 41859  54.6667 158.6669 0003076 317.0836  42.9852  1.70472930 24232
GSAT0212 (PRN E03)      
1 41860U 16069B   20286.02615893  .00000036  00000-0  00000+0 0  9991
2 41860  54.6656 158.6045 0002871 354.5236   5.5695  1.70472865 24295
GSAT0213 (PRN E04)      
1 41861U 16069C   20286.39190858  .00000037  00000-0  00000-0 0  9993
2 41861  54.6671 158.5984 0001887 285.6881  74.3888  1.70473077 24306
GSAT0214 (PRN E05)      
1 41862U 16069D   20283.60603239  .00000032  00000-0  00000-0 0  9992
2 41862  54.6650 158.6713 0001338 305.7270  54.3536  1.70472962 24245
GSAT0215 (PRN E21)      
1 43055U 17079A   20285.26890369  .00000030  00000-0  00000-0 0  9994
2 43055  56.1826 278.6172 0004285 268.0209  91.9419  1.70473827 17613
GSAT0216 (PRN E25)      
1 43056U 17079B   20285.56158213  .00000030  00000-0  00000-0 0  9993
2 43056  56.1826 278.6089 0006122 270.6030  89.3385  1.70473937 17631
GSAT0217 (PRN E27)      
1 43057U 17079C   20286.36823616  .00000027  00000-0  00000-0 0  9995
2 43057  56.1795 278.5872 0005603 279.2489  80.6975  1.70473930 17634
GSAT0218 (PRN E31)      
1 43058U 17079D   20283.65531022  .00000029  00000-0  00000-0 0  9994
2 43058  56.1824 278.6592 0006583 267.5583  92.3764  1.70473932 17617
GSAT0221 (PRN E15)      
1 43564U 18060A   20285.90110593 -.00000057  00000-0  00000-0 0  9995
2 43564  56.8818  37.8639 0003993 248.0484 111.9127  1.70476091 13809
GSAT0222 (PRN E33)      
1 43565U 18060B   20286.12095598 -.00000057  00000-0  00000-0 0  9998
2 43565  56.8840  37.8576 0003423 254.6992 105.2659  1.70476109 13851
GSAT0219 (PRN E36)      
1 43566U 18060C   20286.34130268 -.00000058  00000-0  00000-0 0  9998
2 43566  56.8854  37.8535 0003467 246.8446 113.1213  1.70475955 13837
GSAT0220 (PRN E13)      
1 43567U 18060D   20285.38801495 -.00000056  00000-0  00000+0 0  9996
2 43567  56.8837  37.8805 0003450 248.8018 111.1659  1.70475934 13792
